STARLINK-36938          
1 68124U 26044Z   26079.16668981 -.00139387  00000+0 -73591-3 0  9996
2 68124  97.2813  39.8518 0001133  99.7778 176.3918 15.80896654  3080
STARLINK-36839          
1 68125U 26044AA  26079.16668981  .00042950  00000+0  22411-3 0  9999
2 68125  97.2817  39.8489 0001020  78.1974 189.4663 15.80792858  3034
ECHOSTAR 25             
1 68126U 26045A   26078.10295862 -.00000047  00000+0  00000+0 0  9996
2 68126   9.9581  67.2584 4747686 180.7477 178.3967  1.79782376   196
ICOR SV                 
1 68127U 26046A   26072.90953491  .00482503  92133-4  10434-2 0  9997
2 68127 123.0797 224.1306 0140888 188.2572 171.6170 15.82606913   290
FIREFLY ALPHA R/B       
1 68128U 26046B   26079.29896561  .00026976  00000+0  37834-3 0  9990
2 68128 123.0929 251.9093 0014492   0.0331   0.0729 15.56507137  1299
GUOWANG GROUP 20 OBJECT*
1 68129U 26047A   26078.05554438 -.00000148  00000+0  22254-5 0  9995
2 68129  50.0054  32.2608 0008899 282.8383  77.1528 14.05638332   882
GUOWANG GROUP 20 OBJECT*
1 68130U 26047B   26078.05501345 -.00000148  00000+0  25318-5 0  9990
2 68130  50.0044  32.2582 0007546 277.9720  82.0329 14.05761022   878
GUOWANG GROUP 20 OBJECT*
1 68131U 26047C   26078.62349940 -.00000148  00000+0  24365-5 0  9996
2 68131  50.0037  29.9293 0008114 287.0160  72.9856 14.05810373   962
GUOWANG GROUP 20 OBJECT*
1 68132U 26047D   26078.12556338 -.00000146  00000+0  36920-5 0  9991
2 68132  50.0078  31.9684 0008434 289.4802  70.5192 14.05881519   887
GUOWANG GROUP 20 OBJECT*
1 68133U 26047E   26076.06403444 -.00000145  00000+0  46301-5 0  9995
2 68133  50.0041  40.3867 0006830 274.9069  85.1056 14.05931996   603
GUOWANG GROUP 20 OBJECT*
1 68134U 26047F   26078.97756282 -.00000149  00000+0  20813-5 0  9993
2 68134  50.0091  28.4795 0006391 289.3722  70.6492 14.06079851  1006
GUOWANG GROUP 20 OBJECT*
1 68135U 26047G   26078.19590449 -.00000144  00000+0  48751-5 0  9995
2 68135  50.0116  31.6805 0007386 291.8734  68.1386 14.06047332   900
GUOWANG GROUP 20 OBJECT*
1 68136U 26047H   26077.98225515 -.00000146  00000+0  41386-5 0  9990
2 68136  50.0089  32.5476 0007509 297.2561  62.7580 14.06144171   869
GUOWANG GROUP 20 OBJECT*
1 68137U 26047J   26077.98170420 -.00000144  00000+0  48405-5 0  9992
2 68137  50.0089  32.5436 0005912 296.0035  64.0262 14.06269806   871
CZ-8A R/B               
1 68138U 26047K   26079.30091242 -.00000080  00000+0  39709-4 0  9990
2 68138  49.9543  26.7898 0044746 174.8535 185.2841 14.12228667  1054
SHIYAN-30 03            
1 68139U 26048A   26079.28005864  .00002240  00000+0  22117-3 0  9997
2 68139  34.9999  80.5753 0003975 294.0947  65.9342 14.91679446  1088
